[{"OBJECT_NAME":"STARLINK-35958","OBJECT_ID":"2025-280B","EPOCH":"2026-03-09T22:33:13.781376","MEAN_MOTION":14.98325387,"ECCENTRICITY":0.00026185,"INCLINATION":70.0023,"RA_OF_ASC_NODE":333.813,"ARG_OF_PERICENTER":271.2816,"MEAN_ANOMALY":88.8043,"EPHEMERIS_TYPE":0,"CLASSIFICATION_TYPE":"U","NORAD_CAT_ID":66822,"ELEMENT_SET_NO":999,"REV_AT_EPOCH":1611,"BSTAR":0.00027043095,"MEAN_MOTION_DOT":3.135e-5,"MEAN_MOTION_DDOT":0},{"OBJECT_NAME":"CZ-6A DEB","OBJECT_ID":"2022-151HP","EPOCH":"2026-03-09T17:44:02.457312","MEAN_MOTION":14.86205638,"ECCENTRICITY":0.00516913,"INCLINATION":98.6505,"RA_OF_ASC_NODE":139.989,"ARG_OF_PERICENTER":207.0218,"MEAN_ANOMALY":152.8303,"EPHEMERIS_TYPE":0,"CLASSIFICATION_TYPE":"U","NORAD_CAT_ID":54487,"ELEMENT_SET_NO":999,"REV_AT_EPOCH":17416,"BSTAR":0.0036752124,"MEAN_MOTION_DOT":0.00033148,"MEAN_MOTION_DDOT":0}]
